     2.11           N: GPS NAV DATA                         RINEX VERSION / TYPE
teqc  2019Feb25                         20221121 12:25:48UTCPGM / RUN BY / DATE
OSX ker:10.11.6|Core i5|gcc 4.3 -m64|OSX ker:10.10+|=+      COMMENT
    4.6566D-09  1.4901D-08 -5.9605D-08 -5.9605D-08          ION ALPHA
    7.7824D+04  4.9152D+04 -6.5536D+04 -3.2768D+05          ION BETA
   -6.519258022308D-09-2.220446049250D-14   233472     1543 DELTA-UTC: A0,A1,T,W
                                                            END OF HEADER
27 09  8  1 23 59 44.0 7.065245881677D-05 3.183231456205D-12 0.000000000000D+00
    2.000000000000D+00-6.575000000000D+01 4.126600460902D-09-3.003962154556D+00
   -3.628432750702D-06 2.130788168870D-02 1.691281795502D-06 5.153762384415D+03
    6.047840000000D+05 3.501772880554D-07 1.557431714334D+00 3.911554813385D-08
    9.749186417318D-01 3.503750000000D+02-1.565399051462D+00-7.754251567131D-09
    5.178787145843D-11 1.000000000000D+00 1.542000000000D+03 0.000000000000D+00
    2.000000000000D+00 0.000000000000D+00-4.190951585770D-09 2.000000000000D+00
    6.014580000000D+05 4.000000000000D+00
11 09  8  1 23 59 44.0-1.320289447904D-05-1.705302565824D-12 0.000000000000D+00
    2.400000000000D+01 4.093750000000D+00 6.719208453431D-09 7.361364159051D-01
    4.861503839493D-07 9.585143649019D-03 5.340203642845D-06 5.153684780121D+03
    6.047840000000D+05 3.725290298462D-09-1.744261368447D+00 1.024454832077D-07
    8.888279096501D-01 2.356250000000D+02 7.089026451664D-01-9.122165689102D-09
   -3.821587755898D-10 1.000000000000D+00 1.542000000000D+03 0.000000000000D+00
    2.000000000000D+00 0.000000000000D+00-1.164153218269D-08 2.400000000000D+01
    5.976180000000D+05 4.000000000000D+00
20 09  8  1 23 59 44.0 7.580965757370D-05-9.094947017729D-13 0.000000000000D+00
    2.600000000000D+01 7.506250000000D+01 4.682337895311D-09-1.124302325556D+00
    3.729015588760D-06 3.847848158330D-03 9.160488843918D-06 5.153805746078D+03
    6.047840000000D+05-2.793967723846D-08-5.051879423056D-01 9.685754776001D-08
    9.411794878806D-01 1.916562500000D+02 1.338352546110D+00-8.063550164945D-09
   -4.553761111000D-10 1.000000000000D+00 1.542000000000D+03 0.000000000000D+00
    2.000000000000D+00 0.000000000000D+00-6.519258022308D-09 2.600000000000D+01
    6.045180000000D+05 4.000000000000D+00
